H1 CPF 01  gfz 2022 10 28 12  8012 tandemx   
H2 1003001  6202 36605    2022 10 28 12 59 42 2022 11 02 00 00 42   120 1 1  0 0 0
H9
10 0 59880  63342.000000  0     642764.924    967800.200  -6796806.225
10 0 59880  63462.000000  0    1544949.746   1034974.564  -6639847.637
10 0 59880  63582.000000  0    2421259.867   1068661.827  -6367068.075
10 0 59880  63702.000000  0    3255907.717   1068858.961  -5983164.107
10 0 59880  63822.000000  0    4033807.446   1036409.549  -5494756.624
10 0 59880  63942.000000  0    4740846.356    972976.293  -4910288.050
10 0 59880  64062.000000  0    5364144.930    880995.567  -4239888.258
10 0 59880  64182.000000  0    5892298.721    763614.319  -3495209.018
10 0 59880  64302.000000  0    6315596.688    624609.954  -2689230.005
10 0 59880  64422.000000  0    6626212.219    468295.364  -1836038.499
10 0 59880  64542.000000  0    6818361.495    299410.396   -950583.929
10 0 59880  64662.000000  0    6888421.849    123002.329    -48412.763
10 0 59880  64782.000000  0    6835008.855    -55700.936    854609.458
10 0 59880  64902.000000  0    6659009.824   -231423.266   1742584.955
10 0 59880  65022.000000  0    6363571.146   -398973.921   2599872.949
10 0 59880  65142.000000  0    5954038.899   -553379.196   3411374.510
10 0 59880  65262.000000  0    5437854.779   -690008.393   4162804.588
10 0 59880  65382.000000  0    4824413.606   -804690.791   4840947.586
10 0 59880  65502.000000  0    4124881.673   -893822.122   5433891.846
10 0 59880  65622.000000  0    3351982.757   -954455.342   5931236.544
10 0 59880  65742.000000  0    2519758.265   -984376.142   6324269.881
10 0 59880  65862.000000  0    1643305.966   -982161.172   6606115.923
10 0 59880  65982.000000  0     738501.799   -947218.148   6771850.209
10 0 59880  66102.000000  0    -178290.854   -879806.276   6818580.025
10 0 59880  66222.000000  0   -1090517.062   -781037.440   6745490.380
10 0 59880  66342.000000  0   -1981727.931   -652858.032   6553856.816
10 0 59880  66462.000000  0   -2835875.631   -498011.175   6247024.411
10 0 59880  66582.000000  0   -3637602.155   -319980.297   5830354.272
10 0 59880  66702.000000  0   -4372518.566   -122914.959   5311136.305
10 0 59880  66822.000000  0   -5027469.168     88459.910   4698467.714
10 0 59880  66942.000000  0   -5590774.695    308949.369   4003098.441
10 0 59880  67062.000000  0   -6052449.424    533007.103   3237245.628
10 0 59880  67182.000000  0   -6404387.780    754864.563   2414380.868
10 0 59880  67302.000000  0   -6640516.572    968667.937   1548991.586
10 0 59880  67422.000000  0   -6756908.234   1168618.949    656321.464
10 0 59880  67542.000000  0   -6751851.720   1349116.617   -247905.873
10 0 59880  67662.000000  0   -6625877.546   1504896.073  -1147773.230
10 0 59880  67782.000000  0   -6381737.244   1631160.139  -2027458.443
10 0 59880  67902.000000  0   -6024339.892   1723701.903  -2871519.826
10 0 59880  68022.000000  0   -5560644.872   1779014.530  -3665174.121
10 0 59880  68142.000000  0   -4999514.089   1794384.191  -4394557.744
10 0 59880  68262.000000  0   -4351530.084   1767965.497  -5046966.445
10 0 59880  68382.000000  0   -3628784.894   1698837.759  -5611069.982
10 0 59880  68502.000000  0   -2844646.180   1587041.356  -6077099.156
10 0 59880  68622.000000  0   -2013505.098   1433593.383  -6437004.704
10 0 59880  68742.000000  0   -1150509.274   1240483.164  -6684584.773
10 0 59880  68862.000000  0    -271288.695   1010647.193  -6815579.845
10 0 59880  68982.000000  0     608321.232    747925.004  -6827737.157
10 0 59880  69102.000000  0    1472556.986    456996.508  -6720847.113
10 0 59880  69222.000000  0    2306004.207    143300.305  -6496747.201
10 0 59880  69342.000000  0    3093866.412   -187064.786  -6159293.517
10 0 59880  69462.000000  0    3822224.494   -527453.976  -5714301.253
10 0 59880  69582.000000  0    4478280.485   -870805.135  -5169453.774
10 0 59880  69702.000000  0    5050585.604  -1209780.089  -4534182.740
10 0 59880  69822.000000  0    5529247.320  -1536916.515  -3819515.810
10 0 59880  69942.000000  0    5906109.884  -1844786.796  -3037894.529
10 0 59880  70062.000000  0    6174904.784  -2126161.207  -2202964.219
10 0 59880  70182.000000  0    6331366.587  -2374171.722  -1329338.465
10 0 59880  70302.000000  0    6373310.781  -2582471.824   -432342.727
10 0 59880  70422.000000  0    6300671.470  -2745388.787    472258.213
10 0 59880  70542.000000  0    6115496.958  -2858064.262   1368545.463
10 0 59880  70662.000000  0    5821902.648  -2916578.896   2240734.446
10 0 59880  70782.000000  0    5425980.634  -2918058.378   3073462.219
10 0 59880  70902.000000  0    4935670.347  -2860757.252   3852066.202
10 0 59880  71022.000000  0    4360592.958  -2744117.968   4562846.662
10 0 59880  71142.000000  0    3711856.799  -2568806.317   5193310.402
10 0 59880  71262.000000  0    3001833.838  -2336721.153   5732391.324
10 0 59880  71382.000000  0    2243915.690  -2050977.145   6170640.781
10 0 59880  71502.000000  0    1452255.493  -1715863.115   6500388.007
10 0 59880  71622.000000  0     641499.659  -1336776.545   6715868.580
10 0 59880  71742.000000  0    -173485.362   -920135.099   6813319.203
10 0 59880  71862.000000  0    -977885.572   -473266.803   6791038.555
10 0 59880  71982.000000  0   -1757207.446     -4281.293   6649414.766
10 0 59880  72102.000000  0   -2497537.971    478076.993   6390919.161
10 0 59880  72222.000000  0   -3185792.812    964591.031   6020066.317
10 0 59880  72342.000000  0   -3809949.196   1445746.175   5543340.637
10 0 59880  72462.000000  0   -4359260.382   1911915.388   4969089.607
10 0 59880  72582.000000  0   -4824447.566   2353551.805   4307383.462
10 0 59880  72702.000000  0   -5197863.719   2761384.980   3569842.176
10 0 59880  72822.000000  0   -5473626.322   3126615.593   2769433.546
10 0 59880  72942.000000  0   -5647716.718   3441105.120   1920245.531
10 0 59880  73062.000000  0   -5718043.959   3697556.746   1037235.154
10 0 59880  73182.000000  0   -5684468.588   3889681.006    135957.634
10 0 59880  73302.000000  0   -5548786.875   4012342.094   -767715.723
10 0 59880  73422.000000  0   -5314676.712   4061681.808  -1657884.625
10 0 59880  73542.000000  0   -4987604.926   4035218.068  -2518910.740
10 0 59880  73662.000000  0   -4574697.682   3931913.570  -3335699.300
10 0 59880  73782.000000  0   -4084579.754   3752214.509  -4093967.235
10 0 59880  73902.000000  0   -3527187.387   3498059.194  -4780491.746
10 0 59880  74022.000000  0   -2913559.845   3172857.076  -5383335.700
10 0 59880  74142.000000  0   -2255616.798   2781439.662  -5892046.344
10 0 59880  74262.000000  0   -1565923.792   2329984.718  -6297827.541
10 0 59880  74382.000000  0    -857450.869   1825914.152  -6593680.026
10 0 59880  74502.000000  0    -143331.179   1277770.270  -6774510.412
10 0 59880  74622.000000  0     563377.569    695071.257  -6837209.197
10 0 59880  74742.000000  0    1249925.640     88149.158  -6780699.702
10 0 59880  74862.000000  0    1904097.025   -532029.832  -6605954.413
10 0 59880  74982.000000  0    2514421.106  -1154058.369  -6315979.062
10 0 59880  75102.000000  0    3070370.511  -1766292.376  -5915766.887
10 0 59880  75222.000000  0    3562541.304  -2357063.441  -5412221.925
10 0 59880  75342.000000  0    3982815.296  -2914899.138  -4814052.332
10 0 59880  75462.000000  0    4324498.267  -3428746.079  -4131629.447
10 0 59880  75582.000000  0    4582431.393  -3888189.352  -3376818.080
10 0 59880  75702.000000  0    4753076.336  -4283666.171  -2562779.182
10 0 59880  75822.000000  0    4834569.860  -4606668.508  -1703744.968
10 0 59880  75942.000000  0    4826746.122  -4849929.709   -814771.206
10 0 59880  76062.000000  0    4731124.220  -5007590.111     88530.185
10 0 59880  76182.000000  0    4550861.193  -5075335.757    990271.584
10 0 59880  76302.000000  0    4290672.372  -5050507.167   1874577.776
10 0 59880  76422.000000  0    3956718.575  -4932174.115   2725874.533
10 0 59880  76542.000000  0    3556465.582  -4721176.299   3529170.491
10 0 59880  76662.000000  0    3098518.200  -4420127.492   4270327.965
10 0 59880  76782.000000  0    2592433.679  -4033383.256   4936315.491
10 0 59880  76902.000000  0    2048519.682  -3566973.871   5515437.681
10 0 59880  77022.000000  0    1477621.325  -3028504.731   5997539.087
10 0 59880  77142.000000  0     890901.830  -2427025.472   6374177.679
10 0 59880  77262.000000  0     299622.470  -1772873.042   6638766.336
10 0 59880  77382.000000  0    -285074.041  -1077490.953   6786681.533
10 0 59880  77502.000000  0    -852372.467   -353227.084   6815339.871
10 0 59880  77622.000000  0   -1391984.155    386886.254   6724240.124
10 0 59880  77742.000000  0   -1894333.101   1129366.402   6514971.330
10 0 59880  77862.000000  0   -2350725.764   1860525.092   6191186.770
10 0 59880  77982.000000  0   -2753502.359   2566720.170   5758544.192
10 0 59880  78102.000000  0   -3096167.160   3234611.115   5224613.149
10 0 59880  78222.000000  0   -3373496.705   3851413.551   4598748.948
10 0 59880  78342.000000  0   -3581622.757   4405148.614   3891934.263
10 0 59880  78462.000000  0   -3718088.136   4884881.803   3116589.851
10 0 59880  78582.000000  0   -3781873.921   5280945.961   2286356.702
10 0 59880  78702.000000  0   -3773396.791   5585141.562   1415853.054
10 0 59880  78822.000000  0   -3694476.735   5790910.103    520412.850
10 0 59880  78942.000000  0   -3548277.188   5893478.215   -384190.924
10 0 59880  79062.000000  0   -3339216.431   5889965.926  -1282034.369
10 0 59880  79182.000000  0   -3072853.320   5779455.256  -2157333.547
10 0 59880  79302.000000  0   -2755748.349   5563017.491  -2994730.264
10 0 59880  79422.000000  0   -2395307.493   5243701.411  -3779564.874
10 0 59880  79542.000000  0   -1999613.155   4826482.519  -4498134.367
10 0 59880  79662.000000  0   -1577244.627   4318174.364  -5137927.729
10 0 59880  79782.000000  0   -1137094.827   3727307.903  -5687836.228
99
